From: horizons@ssd.jpl.nasa.gov (Horizons Ephemeris System)
Subject: [Horizons] SMALL BODY #C(500@10)_T(21P/Giacobini-Zinner) (1/1)
Date: March 1, 2021 at 1:22:48 PM PST

Automated mail xmit by MAIL_REQUEST, PID= 2301 Mon Mar  1 13:22:48 2021
++++++++++++++++++++++++++++++++ (part 1 of 1)  +++++++++++++++++++++++++++++++
*******************************************************************************
JPL/HORIZONS                21P/Giacobini-Zinner           2021-Mar-01 13:22:47
Rec #:90000321 (+COV) Soln.date: 2020-Feb-13_15:15:03   # obs: 1983 (2011-2020)

IAU76/J2000 helio. ecliptic osc. elements (au, days, deg., period=Julian yrs):

 EPOCH=  2458062.5 ! 2017-Nov-05.0000000 (TDB)    RMSW= n.a.
  EC= .7104663125616585   QR= 1.013501217647592   TP= 2458371.765429785
  OM= 195.4052529144569   W= 172.8087008849619    IN= 32.00310320419106
  A= 3.500460435587224    MA= 313.4577161576013   ADIST= 5.987419653526855
  PER= 6.5493164376643    N= .150493001           ANGMOM= .022649094
  DAN= 5.87404            DDN= 1.01682            L= 9.297901599999999
  B= 3.8039312            MOID= .0178602          TP= 2018-Sep-10.2654297850

Comet physical (GM= km^3/s^2; RAD= km):
  GM= n.a.                RAD= 1.
  M1=  13.1     M2=  n.a.     k1=  8.5    k2= n.a.     PHCOF= n.a.

Comet non-gravitational force model (AMRAT=m^2/kg;A1-A3=au/d^2;DT=days;R0=au):
  AMRAT=  0.                                      DT=  0.
  A1= 3.107393980026E-9   A2= -1.848644912243E-9  A3= -1.815642118454E-9
Standard model:
  ALN=  .1112620426   NK=  4.6142   NM=  2.15     NN=  5.093    R0=  2.808

COMET comments 
1: soln ref.= JPL#K182/13, data arc: 2011-05-01 to 2020-01-30
2: k1=8.5;
*******************************************************************************


*******************************************************************************
Ephemeris / MAIL_REQUEST Mon Mar  1 13:22:47 2021 Pasadena, USA  / Horizons
*******************************************************************************
Target body name: 21P/Giacobini-Zinner            {source: JPL#K182/13}
Center body name: Sun (10)                        {source: DE431}
Center-site name: BODY CENTER
*******************************************************************************
Start time      : A.D. 1990-Jan-01 00:00:00.0000 TDB
Stop  time      : A.D. 2020-Dec-31 00:00:00.0000 TDB
Step-size       : 10080 minutes
*******************************************************************************
Center geodetic : 0.00000000,0.00000000,0.0000000 {E-lon(deg),Lat(deg),Alt(km)}
Center cylindric: 0.00000000,0.00000000,0.0000000 {E-lon(deg),Dxy(km),Dz(km)}
Center radii    : 696000.0 x 696000.0 x 696000.0 k{Equator, meridian, pole}    
Small perturbers: Yes                             {source: SB431-N16}
Output units    : AU-D
Output type     : GEOMETRIC cartesian states
Output format   : 6 (LT, range, and range-rate)
Reference frame : Ecliptic of J2000.0
*******************************************************************************
Initial IAU76/J2000 heliocentric ecliptic osculating elements (au, days, deg.):
 EPOCH=  2458062.5 ! 2017-Nov-05.0000000 (TDB)    RMSW= n.a.                  
  EC= .7104663125616585   QR= 1.013501217647592   TP= 2458371.765429785       
  OM= 195.4052529144569   W= 172.8087008849619    IN= 32.00310320419106       
 Equivalent ICRF heliocentric equatorial cartesian coordinates (au, au/d):
  X=-2.027554808365064E+00  Y=-2.702138887667676E+00  Z= 7.105826667217907E-02
 VX= 9.334120888591861E-03 VY= 1.478167953892244E-03 VZ= 1.141153961897927E-03
Comet physical (GM= km^3/s^2; RAD= km):                                        
  GM= n.a.                RAD= 1.                                             
  M1=  13.1     M2=  n.a.     k1=  8.5    k2= n.a.     PHCOF= n.a.            
Comet non-gravitational force model (AMRAT=m^2/kg;A1-A3=au/d^2;DT=days;R0=au): 
  AMRAT=  0.                                      DT=  0.                     
  A1= 3.107393980026E-9   A2= -1.848644912243E-9  A3= -1.815642118454E-9      
Standard model:                                                               
  ALN=  .1112620426   NK=  4.6142   NM=  2.15     NN=  5.093    R0=  2.808    
*******************************************************************************
           JDTDB,            Calendar Date (TDB),                     LT,                     RG,                     RR,
**************************************************************************************************************************
$$SOE
2455592.500000000, A.D. 2011-Jan-31 00:00:00.0000,  2.195035060502147E-02,  3.800585392577232E+00, -5.964983735659009E-03,
2455599.500000000, A.D. 2011-Feb-07 00:00:00.0000,  2.170763211516499E-02,  3.758559988807785E+00, -6.042436952141912E-03,
2455606.500000000, A.D. 2011-Feb-14 00:00:00.0000,  2.146176246152910E-02,  3.715988977943256E+00, -6.120874709823269E-03,
2455613.500000000, A.D. 2011-Feb-21 00:00:00.0000,  2.121270145241577E-02,  3.672865401006852E+00, -6.200316097605390E-03,
2455620.500000000, A.D. 2011-Feb-28 00:00:00.0000,  2.096040813910680E-02,  3.629182167947805E+00, -6.280779436421705E-03,
2455627.500000000, A.D. 2011-Mar-07 00:00:00.0000,  2.070484085087748E-02,  3.584932063703788E+00, -6.362282121032460E-03,
2455634.500000000, A.D. 2011-Mar-14 00:00:00.0000,  2.044595722752618E-02,  3.540107753833250E+00, -6.444841004966378E-03,
2455641.500000000, A.D. 2011-Mar-21 00:00:00.0000,  2.018371422448678E-02,  3.494701785400603E+00, -6.528473072950535E-03,
2455648.500000000, A.D. 2011-Mar-28 00:00:00.0000,  1.991806813711049E-02,  3.448706591180487E+00, -6.613193390422624E-03,
2455655.500000000, A.D. 2011-Apr-04 00:00:00.0000,  1.964897473605894E-02,  3.402114513100353E+00, -6.699012827771515E-03,
2455662.500000000, A.D. 2011-Apr-11 00:00:00.0000,  1.937638942035366E-02,  3.354917828740171E+00, -6.785939109705131E-03,
2455669.500000000, A.D. 2011-Apr-18 00:00:00.0000,  1.910026733283568E-02,  3.307108771323626E+00, -6.873977082598914E-03,
2455676.500000000, A.D. 2011-Apr-25 00:00:00.0000,  1.882056349356274E-02,  3.258679552815138E+00, -6.963127793084196E-03,
2455683.500000000, A.D. 2011-May-02 00:00:00.0000,  1.853723297564511E-02,  3.209622394364888E+00, -7.053387382401741E-03,
2455690.500000000, A.D. 2011-May-09 00:00:00.0000,  1.825023112699371E-02,  3.159929564703313E+00, -7.144745906907828E-03,
2455697.500000000, A.D. 2011-May-16 00:00:00.0000,  1.795951384293781E-02,  3.109593427343402E+00, -7.237185984357971E-03,
2455704.500000000, A.D. 2011-May-23 00:00:00.0000,  1.766503789863275E-02,  3.058606498135302E+00, -7.330681176758604E-03,
2455711.500000000, A.D. 2011-May-30 00:00:00.0000,  1.736676135317362E-02,  3.006961515236439E+00, -7.425194059588257E-03,
2455718.500000000, A.D. 2011-Jun-06 00:00:00.0000,  1.706464403626330E-02,  2.954651523375475E+00, -7.520674129486751E-03,
2455725.500000000, A.D. 2011-Jun-13 00:00:00.0000,  1.675864811412679E-02,  2.901669971837334E+00, -7.617056029859482E-03,
2455732.500000000, A.D. 2011-Jun-20 00:00:00.0000,  1.644873873656211E-02,  2.848010826496594E+00, -7.714256743834602E-03,
2455739.500000000, A.D. 2011-Jun-27 00:00:00.0000,  1.613488487116429E-02,  2.793668714258899E+00, -7.812169261419906E-03,
2455746.500000000, A.D. 2011-Jul-04 00:00:00.0000,  1.581706039121551E-02,  2.738639111423286E+00, -7.910657279721709E-03,
2455753.500000000, A.D. 2011-Jul-11 00:00:00.0000,  1.549524534076843E-02,  2.682918562724584E+00, -8.009550942059813E-03,
2455760.500000000, A.D. 2011-Jul-18 00:00:00.0000,  1.516942741844631E-02,  2.626504938245437E+00, -8.108640112148308E-03,
2455767.500000000, A.D. 2011-Jul-25 00:00:00.0000,  1.483960377864945E-02,  2.569397745285528E+00, -8.207665525012417E-03,
2455774.500000000, A.D. 2011-Aug-01 00:00:00.0000,  1.450578322813992E-02,  2.511598508688443E+00, -8.306308033910415E-03,
2455781.500000000, A.D. 2011-Aug-08 00:00:00.0000,  1.416798890301056E-02,  2.453111234344477E+00, -8.404175501811415E-03,
2455788.500000000, A.D. 2011-Aug-15 00:00:00.0000,  1.382626153392062E-02,  2.393942974548664E+00, -8.500786689696466E-03,
2455795.500000000, A.D. 2011-Aug-22 00:00:00.0000,  1.348066343640918E-02,  2.334104518902131E+00, -8.595551354592352E-03,
2455802.500000000, A.D. 2011-Aug-29 00:00:00.0000,  1.313128339785723E-02,  2.273611240463342E+00, -8.687745635819744E-03,
2455809.500000000, A.D. 2011-Sep-05 00:00:00.0000,  1.277824266952122E-02,  2.212484133236556E+00, -8.776481886561462E-03,
2455816.500000000, A.D. 2011-Sep-12 00:00:00.0000,  1.242170230420005E-02,  2.150751082649482E+00, -8.860671975252456E-03,
2455823.500000000, A.D. 2011-Sep-19 00:00:00.0000,  1.206187216994042E-02,  2.088448426227976E+00, -8.938980117884453E-03,
2455830.500000000, A.D. 2011-Sep-26 00:00:00.0000,  1.169902214656490E-02,  2.025622892214783E+00, -9.009762267734884E-03,
2455837.500000000, A.D. 2011-Oct-03 00:00:00.0000,  1.133349600571223E-02,  1.962334002824014E+00, -9.070993854131142E-03,
2455844.500000000, A.D. 2011-Oct-10 00:00:00.0000,  1.096572852387352E-02,  1.898657037271521E+00, -9.120180907911455E-03,
2455851.500000000, A.D. 2011-Oct-17 00:00:00.0000,  1.059626661987162E-02,  1.834686691615985E+00, -9.154249279577299E-03,
2455858.500000000, A.D. 2011-Oct-24 00:00:00.0000,  1.022579546534271E-02,  1.770541599648676E+00, -9.169408896790012E-03,
2455865.500000000, A.D. 2011-Oct-31 00:00:00.0000,  9.855170639093785E-03,  1.706369900247853E+00, -9.160990070065879E-03,
2455872.500000000, A.D. 2011-Nov-07 00:00:00.0000,  9.485457496129635E-03,  1.642356053914485E+00, -9.123250244656314E-03,
2455879.500000000, A.D. 2011-Nov-14 00:00:00.0000,  9.117978918035785E-03,  1.578729110494774E+00, -9.049153516079761E-03,
2455886.500000000, A.D. 2011-Nov-21 00:00:00.0000,  8.754372374551331E-03,  1.515772589085207E+00, -8.930133159299214E-03,
2455893.500000000, A.D. 2011-Nov-28 00:00:00.0000,  8.396656545463370E-03,  1.453836013256011E+00, -8.755861985857974E-03,
